STARLINK-35669          
1 66396U 25257S   25328.50002315 -.01922879  00000+0 -17347-1 0  9999
2 66396  53.1594 351.3852 0001177  78.0752  56.2406 15.70460705  3563
STARLINK-35510          
1 66397U 25257T   25328.50002315 -.01924666  00000+0 -17364-1 0  9995
2 66397  53.1599 351.3814 0001250  75.9435  60.2903 15.70461276  3564
STARLINK-35642          
1 66398U 25257U   25328.50002315 -.01930649  00000+0 -17422-1 0  9999
2 66398  53.1597 351.3773 0001200  69.4412  68.7061 15.70466196  3569
STARLINK-35657          
1 66399U 25257V   25328.50002315 -.01910619  00000+0 -17229-1 0  9990
2 66399  53.1596 351.3732 0001384  76.3295  63.7452 15.70449133  3564
STARLINK-35667          
1 66400U 25257W   25328.50002315 -.01925076  00000+0 -17368-1 0  9990
2 66400  53.1598 351.3648 0001270  71.1714  72.7296 15.70461290  3562
STARLINK-35668          
1 66401U 25257X   25328.50002315 -.01781056  00000+0 -16326-1 0  9992
2 66401  53.1596 351.3605 0001688  85.0356  60.8616 15.70354227  3568
STARLINK-35644          
1 66402U 25257Y   25328.50002315 -.01922220  00000+0 -17340-1 0  9990
2 66402  53.1597 351.3691 0001367  73.7152  68.2698 15.70459173  3565
STARLINK-35602          
1 66403U 25257Z   25328.50002315 -.01927663  00000+0 -17393-1 0  9995
2 66403  53.1596 351.3570 0001293  71.3757  76.3583 15.70463146  3562
STARLINK-35691          
1 66404U 25257AA  25328.50002315 -.01917891  00000+0 -17298-1 0  9992
2 66404  53.1597 351.3525 0001358  69.0119  80.6405 15.70456152  3562
STARLINK-35683          
1 66405U 25257AB  25328.50002315 -.01917314  00000+0 -17293-1 0  9998
2 66405  53.1595 351.3479 0001262  67.7506  83.8172 15.70456811  3409
STARLINK-34840          
1 66406U 25257AC  25327.25002315 -.00304602  00000+0 -21462-2 0  9993
2 66406  53.1583 357.5267 0000995  91.3865 183.9617 15.74245591  3303
STARLINK-35686          
1 66407U 25257AD  25328.50002315 -.01919205  00000+0 -17312-1 0  9993
2 66407  53.1594 351.3444 0001187  72.6323  80.8534 15.70457821  3568
