CCSDS_OMM_VERS = 2.0
CREATION_DATE  = 
ORIGINATOR     = 

OBJECT_NAME    = STARLINK-35669
OBJECT_ID      = 2025-257S
CENTER_NAME    = EARTH
REF_FRAME      = TEME
TIME_SYSTEM    = UTC
MEAN_ELEMENT_THEORY = SGP/SGP4

EPOCH          = 2025-11-24T12:00:02.000160
MEAN_MOTION    = 15.70460705
ECCENTRICITY   = .0001177
INCLINATION    = 53.1594
RA_OF_ASC_NODE = 351.3852
ARG_OF_PERICENTER = 78.0752
MEAN_ANOMALY   = 56.2406

EPHEMERIS_TYPE = 0
CLASSIFICATION_TYPE = U
NORAD_CAT_ID   = 66396
ELEMENT_SET_NO = 999
REV_AT_EPOCH   = 356
BSTAR          = -.17347E-1
MEAN_MOTION_DOT = -.1922879E-1
MEAN_MOTION_DDOT = 0

CCSDS_OMM_VERS = 2.0
CREATION_DATE  = 
ORIGINATOR     = 

OBJECT_NAME    = STARLINK-35510
OBJECT_ID      = 2025-257T
CENTER_NAME    = EARTH
REF_FRAME      = TEME
TIME_SYSTEM    = UTC
MEAN_ELEMENT_THEORY = SGP/SGP4

EPOCH          = 2025-11-24T12:00:02.000160
MEAN_MOTION    = 15.70461276
ECCENTRICITY   = .000125
INCLINATION    = 53.1599
RA_OF_ASC_NODE = 351.3814
ARG_OF_PERICENTER = 75.9435
MEAN_ANOMALY   = 60.2903

EPHEMERIS_TYPE = 0
CLASSIFICATION_TYPE = U
NORAD_CAT_ID   = 66397
ELEMENT_SET_NO = 999
REV_AT_EPOCH   = 356
BSTAR          = -.17364E-1
MEAN_MOTION_DOT = -.1924666E-1
MEAN_MOTION_DDOT = 0

CCSDS_OMM_VERS = 2.0
CREATION_DATE  = 
ORIGINATOR     = 

OBJECT_NAME    = STARLINK-35642
OBJECT_ID      = 2025-257U
CENTER_NAME    = EARTH
REF_FRAME      = TEME
TIME_SYSTEM    = UTC
MEAN_ELEMENT_THEORY = SGP/SGP4

EPOCH          = 2025-11-24T12:00:02.000160
MEAN_MOTION    = 15.70466196
ECCENTRICITY   = .00012
INCLINATION    = 53.1597
RA_OF_ASC_NODE = 351.3773
ARG_OF_PERICENTER = 69.4412
MEAN_ANOMALY   = 68.7061

EPHEMERIS_TYPE = 0
CLASSIFICATION_TYPE = U
NORAD_CAT_ID   = 66398
ELEMENT_SET_NO = 999
REV_AT_EPOCH   = 356
BSTAR          = -.17422E-1
MEAN_MOTION_DOT = -.1930649E-1
MEAN_MOTION_DDOT = 0

CCSDS_OMM_VERS = 2.0
CREATION_DATE  = 
ORIGINATOR     = 

OBJECT_NAME    = STARLINK-35657
OBJECT_ID      = 2025-257V
CENTER_NAME    = EARTH
REF_FRAME      = TEME
TIME_SYSTEM    = UTC
MEAN_ELEMENT_THEORY = SGP/SGP4

EPOCH          = 2025-11-24T12:00:02.000160
MEAN_MOTION    = 15.70449133
ECCENTRICITY   = .0001384
INCLINATION    = 53.1596
RA_OF_ASC_NODE = 351.3732
ARG_OF_PERICENTER = 76.3295
MEAN_ANOMALY   = 63.7452

EPHEMERIS_TYPE = 0
CLASSIFICATION_TYPE = U
NORAD_CAT_ID   = 66399
ELEMENT_SET_NO = 999
REV_AT_EPOCH   = 356
BSTAR          = -.17229E-1
MEAN_MOTION_DOT = -.1910619E-1
MEAN_MOTION_DDOT = 0

CCSDS_OMM_VERS = 2.0
CREATION_DATE  = 
ORIGINATOR     = 

OBJECT_NAME    = STARLINK-35667
OBJECT_ID      = 2025-257W
CENTER_NAME    = EARTH
REF_FRAME      = TEME
TIME_SYSTEM    = UTC
MEAN_ELEMENT_THEORY = SGP/SGP4

EPOCH          = 2025-11-24T12:00:02.000160
MEAN_MOTION    = 15.70461290
ECCENTRICITY   = .000127
INCLINATION    = 53.1598
RA_OF_ASC_NODE = 351.3648
ARG_OF_PERICENTER = 71.1714
MEAN_ANOMALY   = 72.7296

EPHEMERIS_TYPE = 0
CLASSIFICATION_TYPE = U
NORAD_CAT_ID   = 66400
ELEMENT_SET_NO = 999
REV_AT_EPOCH   = 356
BSTAR          = -.17368E-1
MEAN_MOTION_DOT = -.1925076E-1
MEAN_MOTION_DDOT = 0

CCSDS_OMM_VERS = 2.0
CREATION_DATE  = 
ORIGINATOR     = 

OBJECT_NAME    = STARLINK-35668
OBJECT_ID      = 2025-257X
CENTER_NAME    = EARTH
REF_FRAME      = TEME
TIME_SYSTEM    = UTC
MEAN_ELEMENT_THEORY = SGP/SGP4

EPOCH          = 2025-11-24T12:00:02.000160
MEAN_MOTION    = 15.70354227
ECCENTRICITY   = .0001688
INCLINATION    = 53.1596
RA_OF_ASC_NODE = 351.3605
ARG_OF_PERICENTER = 85.0356
MEAN_ANOMALY   = 60.8616

EPHEMERIS_TYPE = 0
CLASSIFICATION_TYPE = U
NORAD_CAT_ID   = 66401
ELEMENT_SET_NO = 999
REV_AT_EPOCH   = 356
BSTAR          = -.16326E-1
MEAN_MOTION_DOT = -.1781056E-1
MEAN_MOTION_DDOT = 0

CCSDS_OMM_VERS = 2.0
CREATION_DATE  = 
ORIGINATOR     = 

OBJECT_NAME    = STARLINK-35644
OBJECT_ID      = 2025-257Y
CENTER_NAME    = EARTH
REF_FRAME      = TEME
TIME_SYSTEM    = UTC
MEAN_ELEMENT_THEORY = SGP/SGP4

EPOCH          = 2025-11-24T12:00:02.000160
MEAN_MOTION    = 15.70459173
ECCENTRICITY   = .0001367
INCLINATION    = 53.1597
RA_OF_ASC_NODE = 351.3691
ARG_OF_PERICENTER = 73.7152
MEAN_ANOMALY   = 68.2698

EPHEMERIS_TYPE = 0
CLASSIFICATION_TYPE = U
NORAD_CAT_ID   = 66402
ELEMENT_SET_NO = 999
REV_AT_EPOCH   = 356
BSTAR          = -.1734E-1
MEAN_MOTION_DOT = -.192222E-1
MEAN_MOTION_DDOT = 0

CCSDS_OMM_VERS = 2.0
CREATION_DATE  = 
ORIGINATOR     = 

OBJECT_NAME    = STARLINK-35602
OBJECT_ID      = 2025-257Z
CENTER_NAME    = EARTH
REF_FRAME      = TEME
TIME_SYSTEM    = UTC
MEAN_ELEMENT_THEORY = SGP/SGP4

EPOCH          = 2025-11-24T12:00:02.000160
MEAN_MOTION    = 15.70463146
ECCENTRICITY   = .0001293
INCLINATION    = 53.1596
RA_OF_ASC_NODE = 351.3570
ARG_OF_PERICENTER = 71.3757
MEAN_ANOMALY   = 76.3583

EPHEMERIS_TYPE = 0
CLASSIFICATION_TYPE = U
NORAD_CAT_ID   = 66403
ELEMENT_SET_NO = 999
REV_AT_EPOCH   = 356
BSTAR          = -.17393E-1
MEAN_MOTION_DOT = -.1927663E-1
MEAN_MOTION_DDOT = 0

CCSDS_OMM_VERS = 2.0
CREATION_DATE  = 
ORIGINATOR     = 

OBJECT_NAME    = STARLINK-35691
OBJECT_ID      = 2025-257AA
CENTER_NAME    = EARTH
REF_FRAME      = TEME
TIME_SYSTEM    = UTC
MEAN_ELEMENT_THEORY = SGP/SGP4

EPOCH          = 2025-11-24T12:00:02.000160
MEAN_MOTION    = 15.70456152
ECCENTRICITY   = .0001358
INCLINATION    = 53.1597
RA_OF_ASC_NODE = 351.3525
ARG_OF_PERICENTER = 69.0119
MEAN_ANOMALY   = 80.6405

EPHEMERIS_TYPE = 0
CLASSIFICATION_TYPE = U
NORAD_CAT_ID   = 66404
ELEMENT_SET_NO = 999
REV_AT_EPOCH   = 356
BSTAR          = -.17298E-1
MEAN_MOTION_DOT = -.1917891E-1
MEAN_MOTION_DDOT = 0

CCSDS_OMM_VERS = 2.0
CREATION_DATE  = 
ORIGINATOR     = 

OBJECT_NAME    = STARLINK-35683
OBJECT_ID      = 2025-257AB
CENTER_NAME    = EARTH
REF_FRAME      = TEME
TIME_SYSTEM    = UTC
MEAN_ELEMENT_THEORY = SGP/SGP4

EPOCH          = 2025-11-24T12:00:02.000160
MEAN_MOTION    = 15.70456811
ECCENTRICITY   = .0001262
INCLINATION    = 53.1595
RA_OF_ASC_NODE = 351.3479
ARG_OF_PERICENTER = 67.7506
MEAN_ANOMALY   = 83.8172

EPHEMERIS_TYPE = 0
CLASSIFICATION_TYPE = U
NORAD_CAT_ID   = 66405
ELEMENT_SET_NO = 999
REV_AT_EPOCH   = 340
BSTAR          = -.17293E-1
MEAN_MOTION_DOT = -.1917314E-1
MEAN_MOTION_DDOT = 0

CCSDS_OMM_VERS = 2.0
CREATION_DATE  = 
ORIGINATOR     = 

OBJECT_NAME    = STARLINK-34840
OBJECT_ID      = 2025-257AC
CENTER_NAME    = EARTH
REF_FRAME      = TEME
TIME_SYSTEM    = UTC
MEAN_ELEMENT_THEORY = SGP/SGP4

EPOCH          = 2025-11-23T06:00:02.000160
MEAN_MOTION    = 15.74245591
ECCENTRICITY   = .00009958
INCLINATION    = 53.1583
RA_OF_ASC_NODE = 357.5267
ARG_OF_PERICENTER = 91.3865
MEAN_ANOMALY   = 183.9617

EPHEMERIS_TYPE = 0
CLASSIFICATION_TYPE = U
NORAD_CAT_ID   = 66406
ELEMENT_SET_NO = 999
REV_AT_EPOCH   = 330
BSTAR          = -.21461976E-2
MEAN_MOTION_DOT = -.304602E-2
MEAN_MOTION_DDOT = 0

CCSDS_OMM_VERS = 2.0
CREATION_DATE  = 
ORIGINATOR     = 

OBJECT_NAME    = STARLINK-35686
OBJECT_ID      = 2025-257AD
CENTER_NAME    = EARTH
REF_FRAME      = TEME
TIME_SYSTEM    = UTC
MEAN_ELEMENT_THEORY = SGP/SGP4

EPOCH          = 2025-11-24T12:00:02.000160
MEAN_MOTION    = 15.70457821
ECCENTRICITY   = .0001187
INCLINATION    = 53.1594
RA_OF_ASC_NODE = 351.3444
ARG_OF_PERICENTER = 72.6323
MEAN_ANOMALY   = 80.8534

EPHEMERIS_TYPE = 0
CLASSIFICATION_TYPE = U
NORAD_CAT_ID   = 66407
ELEMENT_SET_NO = 999
REV_AT_EPOCH   = 356
BSTAR          = -.17312E-1
MEAN_MOTION_DOT = -.1919205E-1
MEAN_MOTION_DDOT = 0

